$$SOE
2460147.500000000, A.D. 2023-Jul-22 00:00:00.0000, -1.237517020868400E+08, -5.146157464917987E+08, -4.852208069767463E+07,
2460154.500000000, A.D. 2023-Jul-29 00:00:00.0000, -1.147107866888189E+08, -5.170337481616279E+08, -4.838288962922630E+07,
2460161.500000000, A.D. 2023-Aug-05 00:00:00.0000, -1.056329039530797E+08, -5.192848817411143E+08, -4.822808004361403E+07,
2460168.500000000, A.D. 2023-Aug-12 00:00:00.0000, -9.652104362004250E+07, -5.213687043089990E+08, -4.805772795526481E+07,
2460175.500000000, A.D. 2023-Aug-19 00:00:00.0000, -8.737819481892379E+07, -5.232848222070040E+08, -4.787191354941911E+07,
2460182.500000000, A.D. 2023-Aug-26 00:00:00.0000, -7.820734543865874E+07, -5.250328906884997E+08, -4.767072112982768E+07,
2460189.500000000, A.D. 2023-Sep-02 00:00:00.0000, -6.901148153386770E+07, -5.266126136382135E+08, -4.745423907164678E+07,
2460196.500000000, A.D. 2023-Sep-09 00:00:00.0000, -5.979358672879443E+07, -5.280237434044100E+08, -4.722255978620833E+07,
2460203.500000000, A.D. 2023-Sep-16 00:00:00.0000, -5.055664145041010E+07, -5.292660808019307E+08, -4.697577971779135E+07,
2460210.500000000, A.D. 2023-Sep-23 00:00:00.0000, -4.130362157400113E+07, -5.303394749996886E+08, -4.671399938706565E+07,
2460217.500000000, A.D. 2023-Sep-30 00:00:00.0000, -3.203749682063866E+07, -5.312438221021013E+08, -4.643732335260731E+07,
2460224.500000000, A.D. 2023-Oct-07 00:00:00.0000, -2.276123126000447E+07, -5.319790629669411E+08, -4.614585991873789E+07,
2460231.500000000, A.D. 2023-Oct-14 00:00:00.0000, -1.347778487793056E+07, -5.325451835722718E+08, -4.583972095562276E+07,
2460238.500000000, A.D. 2023-Oct-21 00:00:00.0000, -4.190112979170680E+06, -5.329422163302171E+08, -4.551902199667662E+07,
2460245.500000000, A.D. 2023-Oct-28 00:00:00.0000, 5.098835150605001E+06, -5.331702400882602E+08, -4.518388229776412E+07,
2460252.500000000, A.D. 2023-Nov-04 00:00:00.0000, 1.438611707372638E+07, -5.332293795888470E+08, -4.483442480623695E+07,
2460259.500000000, A.D. 2023-Nov-11 00:00:00.0000, 2.366879769813207E+07, -5.331198049872326E+08, -4.447077610482502E+07,
2460266.500000000, A.D. 2023-Nov-18 00:00:00.0000, 3.294394966344025E+07, -5.328417314918178E+08, -4.409306635548505E+07,
2460273.500000000, A.D. 2023-Nov-25 00:00:00.0000, 4.220865368869275E+07, -5.323954191042694E+08, -4.370142924779576E+07,
2460280.500000000, A.D. 2023-Dec-02 00:00:00.0000, 5.145999891051152E+07, -5.317811724705509E+08, -4.329600195522854E+07,
2460287.500000000, A.D. 2023-Dec-09 00:00:00.0000, 6.069508329012625E+07, -5.309993409019767E+08, -4.287692511117050E+07,
2460294.500000000, A.D. 2023-Dec-16 00:00:00.0000, 6.991101437733859E+07, -5.300503185542077E+08, -4.244434283004972E+07,
2460301.500000000, A.D. 2023-Dec-23 00:00:00.0000, 7.910491078016633E+07, -5.289345440773191E+08, -4.199840274940601E+07,
2460308.500000000, A.D. 2023-Dec-30 00:00:00.0000, 8.827390299998385E+07, -5.276524986879449E+08, -4.153925588431147E+07,
2460315.500000000, A.D. 2024-Jan-06 00:00:00.0000, 9.741513185980238E+07, -5.262047050237102E+08, -4.106705632459623E+07,
2460322.500000000, A.D. 2024-Jan-13 00:00:00.0000, 1.065257476991358E+08, -5.245917285863233E+08, -4.058196121377820E+07,
2460329.500000000, A.D. 2024-Jan-20 00:00:00.0000, 1.156029115598701E+08, -5.228141786891918E+08, -4.008413087016591E+07,
2460336.500000000, A.D. 2024-Jan-27 00:00:00.0000, 1.246437963348718E+08, -5.208727082580641E+08, -3.957372881104231E+07,
2460343.500000000, A.D. 2024-Feb-03 00:00:00.0000, 1.336455874512348E+08, -5.187680134336938E+08, -3.905092171839511E+07,
2460350.500000000, A.D. 2024-Feb-10 00:00:00.0000, 1.426054833657297E+08, -5.165008332678688E+08, -3.851587939562017E+07,
2460357.500000000, A.D. 2024-Feb-17 00:00:00.0000, 1.515206960112097E+08, -5.140719495049804E+08, -3.796877472741267E+07,
2460364.500000000, A.D. 2024-Feb-24 00:00:00.0000, 1.603884512298150E+08, -5.114821864341441E+08, -3.740978364501145E+07,
2460371.500000000, A.D. 2024-Mar-02 00:00:00.0000, 1.692059892222541E+08, -5.087324108438344E+08, -3.683908510216311E+07,
2460378.500000000, A.D. 2024-Mar-09 00:00:00.0000, 1.779705651521302E+08, -5.058235321411450E+08, -3.625686107966328E+07,
2460385.500000000, A.D. 2024-Mar-16 00:00:00.0000, 1.866794503011004E+08, -5.027565024378019E+08, -3.566329663859582E+07,
2460392.500000000, A.D. 2024-Mar-23 00:00:00.0000, 1.953299336719839E+08, -4.995323154936474E+08, -3.505857992215374E+07,
2460399.500000000, A.D. 2024-Mar-30 00:00:00.0000, 2.039193217992904E+08, -4.961520045442913E+08, -3.444290190270346E+07,
2460406.500000000, A.D. 2024-Apr-06 00:00:00.0000, 2.124449370238264E+08, -4.926166423801804E+08, -3.381645617285255E+07,
2460413.500000000, A.D. 2024-Apr-13 00:00:00.0000, 2.209041177834950E+08, -4.889273428407756E+08, -3.317943903798741E+07,
2460420.500000000, A.D. 2024-Apr-20 00:00:00.0000, 2.292942199689027E+08, -4.850852610481654E+08, -3.253204960426331E+07,
2460427.500000000, A.D. 2024-Apr-27 00:00:00.0000, 2.376126178269142E+08, -4.810915929422523E+08, -3.187448976872835E+07,
2460434.500000000, A.D. 2024-May-04 00:00:00.0000, 2.458567045000092E+08, -4.769475748209720E+08, -3.120696417699739E+07,
2460441.500000000, A.D. 2024-May-11 00:00:00.0000, 2.540238924397625E+08, -4.726544829869799E+08, -3.052968017848387E+07,
2460448.500000000, A.D. 2024-May-18 00:00:00.0000, 2.621116137764550E+08, -4.682136334785674E+08, -2.984284778473300E+07,
2460455.500000000, A.D. 2024-May-25 00:00:00.0000, 2.701173206695915E+08, -4.636263818910933E+08, -2.914667963347468E+07,
2460462.500000000, A.D. 2024-Jun-01 00:00:00.0000, 2.780384856994063E+08, -4.588941233453803E+08, -2.844139096833107E+07,
2460469.500000000, A.D. 2024-Jun-08 00:00:00.0000, 2.858726025462729E+08, -4.540182926252286E+08, -2.772719965839535E+07,
2460476.500000000, A.D. 2024-Jun-15 00:00:00.0000, 2.936171873583130E+08, -4.490003639387226E+08, -2.700432624950665E+07,
2460483.500000000, A.D. 2024-Jun-22 00:00:00.0000, 3.012697798024717E+08, -4.438418491284768E+08, -2.627299385868147E+07,
2460490.500000000, A.D. 2024-Jun-29 00:00:00.0000, 3.088279416771778E+08, -4.385442961515114E+08, -2.553342786559129E+07,
2460497.500000000, A.D. 2024-Jul-06 00:00:00.0000, 3.162892557312472E+08, -4.331092902987959E+08, -2.478585584537894E+07,
2460504.500000000, A.D. 2024-Jul-13 00:00:00.0000, 3.236513266386513E+08, -4.275384553295587E+08, -2.403050769063976E+07,
2460511.500000000, A.D. 2024-Jul-20 00:00:00.0000, 3.309117821439693E+08, -4.218334533716067E+08, -2.326761564643663E+07,
2460518.500000000, A.D. 2024-Jul-27 00:00:00.0000, 3.380682737226660E+08, -4.159959845469752E+08, -2.249741427652183E+07,
2460525.500000000, A.D. 2024-Aug-03 00:00:00.0000, 3.451184770291480E+08, -4.100277866973943E+08, -2.172014041644570E+07,
2460532.500000000, A.D. 2024-Aug-10 00:00:00.0000, 3.520600922984537E+08, -4.039306352133455E+08, -2.093603312920335E+07,
2460539.500000000, A.D. 2024-Aug-17 00:00:00.0000, 3.588908447490286E+08, -3.977063429441685E+08, -2.014533366613474E+07,
2460546.500000000, A.D. 2024-Aug-24 00:00:00.0000, 3.656084850145720E+08, -3.913567602105144E+08, -1.934828543766895E+07,
2460553.500000000, A.D. 2024-Aug-31 00:00:00.0000, 3.722107897208496E+08, -3.848837749795382E+08, -1.854513400980881E+07,
2460560.500000000, A.D. 2024-Sep-07 00:00:00.0000, 3.786955625736571E+08, -3.782893130754865E+08, -1.773612714983153E+07,
2460567.500000000, A.D. 2024-Sep-14 00:00:00.0000, 3.850606360443054E+08, -3.715753374295442E+08, -1.692151484787576E+07,
2460574.500000000, A.D. 2024-Sep-21 00:00:00.0000, 3.913038716246144E+08, -3.647438459568750E+08, -1.610154909478673E+07,
2460581.500000000, A.D. 2024-Sep-28 00:00:00.0000, 3.974231581636666E+08, -3.577968712885597E+08, -1.527648363543104E+07,
2460588.500000000, A.D. 2024-Oct-05 00:00:00.0000, 4.034164119556781E+08, -3.507364823558093E+08, -1.444657403407080E+07,
2460595.500000000, A.D. 2024-Oct-12 00:00:00.0000, 4.092815782188329E+08, -3.435647848457503E+08, -1.361207777523704E+07,
2460602.500000000, A.D. 2024-Oct-19 00:00:00.0000, 4.150166322146343E+08, -3.362839207995750E+08, -1.277325426161110E+07,
2460609.500000000, A.D. 2024-Oct-26 00:00:00.0000, 4.206195799754378E+08, -3.288960681543382E+08, -1.193036477137244E+07,
2460616.500000000, A.D. 2024-Nov-02 00:00:00.0000, 4.260884588972080E+08, -3.214034403763551E+08, -1.108367241064958E+07,
2460623.500000000, A.D. 2024-Nov-09 00:00:00.0000, 4.314213382935787E+08, -3.138082861646926E+08, -1.023344206814958E+07,
2460630.500000000, A.D. 2024-Nov-16 00:00:00.0000, 4.366163199365498E+08, -3.061128892232723E+08, -9.379940374239445E+06,
2460637.500000000, A.D. 2024-Nov-23 00:00:00.0000, 4.416715386303549E+08, -2.983195681499302E+08, -8.523435672813535E+06,
2460644.500000000, A.D. 2024-Nov-30 00:00:00.0000, 4.465851630269326E+08, -2.904306764833394E+08, -7.664198028502971E+06,
2460651.500000000, A.D. 2024-Dec-07 00:00:00.0000, 4.513553971033913E+08, -2.824486024857442E+08, -6.802499273231715E+06,
2460658.500000000, A.D. 2024-Dec-14 00:00:00.0000, 4.559804816146334E+08, -2.743757674372345E+08, -5.938612928716302E+06,
2460665.500000000, A.D. 2024-Dec-21 00:00:00.0000, 4.604586932038223E+08, -2.662146236832179E+08, -5.072813893368751E+06,
2460672.500000000, A.D. 2024-Dec-28 00:00:00.0000, 4.647883431426405E+08, -2.579676554027441E+08, -4.205378316806525E+06,
2460679.500000000, A.D. 2025-Jan-04 00:00:00.0000, 4.689677782977943E+08, -2.496373797206368E+08, -3.336583705788314E+06,
2460686.500000000, A.D. 2025-Jan-11 00:00:00.0000, 4.729953825025477E+08, -2.412263465028535E+08, -2.466708958589152E+06,
2460693.500000000, A.D. 2025-Jan-18 00:00:00.0000, 4.768695774165094E+08, -2.327371377534204E+08, -1.596034318476826E+06,
2460700.500000000, A.D. 2025-Jan-25 00:00:00.0000, 4.805888231171560E+08, -2.241723670869649E+08, -7.248413070921749E+05,
2460707.500000000, A.D. 2025-Feb-01 00:00:00.0000, 4.841516186125757E+08, -2.155346793063813E+08, 1.465873427304924E+05,
$$EOE